{
    "links": {
        "self": "http://www.neowsapp.com/rest/v1/neo/3682232?api_key=iIulBulltgU6a56xZRHN4H3l9WmuAYTsLGpBGhQ2"
    },
    "id": "3682232",
    "neo_reference_id": "3682232",
    "name": "(2014 QE3)",
    "designation": "2014 QE3",
    "nasa_jpl_url": "http://ssd.jpl.nasa.gov/sbdb.cgi?sstr=3682232",
    "absolute_magnitude_h": 23.5,
    "estimated_diameter": {
        "kilometers": {
            "estimated_diameter_min": 0.0530340723,
            "estimated_diameter_max": 0.1185877909
        },
        "meters": {
            "estimated_diameter_min": 53.0340723319,
            "estimated_diameter_max": 118.5877908577
        },
        "miles": {
            "estimated_diameter_min": 0.0329538346,
            "estimated_diameter_max": 0.0736870142
        },
        "feet": {
            "estimated_diameter_min": 173.9963058693,
            "estimated_diameter_max": 389.0675677576
        }
    },
    "is_potentially_hazardous_asteroid": false,
    "close_approach_data": [
        {
            "close_approach_date": "2014-07-23",
            "close_approach_date_full": "2014-Jul-23 18:23",
            "epoch_date_close_approach": 1406139780000,
            "relative_velocity": {
                "kilometers_per_second": "5.6268291579",
                "kilometers_per_hour": "20256.5849685672",
                "miles_per_hour": "12586.6541433855"
            },
            "miss_distance": {
                "astronomical": "0.080736054",
                "lunar": "31.406325006",
                "kilometers": "12077941.71060498",
                "miles": "7504884.972829524"
            },
            "orbiting_body": "Earth"
        }
    ],
    "orbital_data": {
        "orbit_id": "7",
        "orbit_determination_date": "2017-04-06 08:39:17",
        "first_observation_date": "2014-08-19",
        "last_observation_date": "2014-10-02",
        "data_arc_in_days": 44,
        "observations_used": 19,
        "orbit_uncertainty": "7",
        "minimum_orbit_intersection": ".075315",
        "jupiter_tisserand_invariant": "3.670",
        "epoch_osculation": "2459000.5",
        "eccentricity": ".4629564167005751",
        "semi_major_axis": "2.028547511722431",
        "inclination": "2.967739415105192",
        "ascending_node_longitude": "276.9803564622355",
        "orbital_period": "1055.300643303905",
        "perihelion_distance": "1.089418424588547",
        "perihelion_argument": "19.25036006006484",
        "aphelion_distance": "2.967676598856316",
        "perihelion_time": "2458970.148471413105",
        "mean_anomaly": "10.353969137244",
        "mean_motion": ".3411350142580436",
        "equinox": "J2000",
        "orbit_class": {
            "orbit_class_type": "AMO",
            "orbit_class_description": "Near-Earth asteroid orbits similar to that of 1221 Amor",
            "orbit_class_range": "1.017 AU < q (perihelion) < 1.3 AU"
        }
    },
    "is_sentry_object": false
}